satname,norad_id,inclination_deg,eccentricity,mean_motion_rev_per_day,perigee_km,apogee_km,l1,l2
STARLINK-1364,45589,53.0545,0.0001264,15.06390658,546.36482229394,548.1155576475649,1 45589U 20025BL  25342.66132947  .00001395  00000+0  11256-3 0  9999,2 45589  53.0545 125.2634 0001264  83.8655 276.2478 15.06390658311785
STARLINK-1365,45590,53.0558,0.0001432,15.06383723,546.2697279908307,548.2531621054914,1 45590U 20025BM  25342.74335286  .00000958  00000+0  83225-4 0  9991,2 45590  53.0558 154.8915 0001432  88.9905 271.1248 15.06383723311393
STARLINK-1443,45660,53.0541,0.0001302,15.06405813,546.2920639251879,548.0954200504011,1 45660U 20035D   25342.66225356  .00000185  00000+0  31320-4 0  9998,2 45660  53.0541 115.2585 0001302  86.0080 274.1057 15.06405813305014
STARLINK-1446,45663,53.0263,0.0001331,15.37000238,454.0761939026643,455.8951711607542,1 45663U 20035G   25342.53428269  .00035633  00000+0  97617-3 0  9991,2 45663  53.0263  70.8640 0001331 355.5971   4.5019 15.37000238305627
STARLINK-1448,45665,53.0549,0.0001337,15.06393098,546.3067897245264,548.1586335854226,1 45665U 20035J   25342.66593427  .00000563  00000+0  56665-4 0  9999,2 45665  53.0549 115.2372 0001337  85.2749 274.8392 15.06393098305001
STARLINK-1451,45668,53.055,0.0001319,15.06392264,546.3218111634378,548.1487243676747,1 45668U 20035M   25342.66965977 -.00000112  00000+0  11343-4 0  9990,2 45668  53.0550 115.5411 0001319  90.2085 269.9055 15.06392264305018
STARLINK-1452,45669,53.0379,0.0007285,15.3097384,467.9145114944886,477.89648041109103,1 45669U 20035N   25342.61244334  .00058182  00000+0  19134-2 0  9996,2 45669  53.0379  90.7670 0007285 135.5673 224.5912 15.30973840305351
STARLINK-1453,45670,53.0575,0.000244,15.12669083,526.3789969310092,529.7492230726903,1 45670U 20035P   25342.60060139  .00009503  00000+0  55324-3 0  9991,2 45670  53.0575  84.7055 0002440 151.7465 208.3659 15.12669083305324
STARLINK-1454,45671,53.0558,0.0001249,15.06411225,546.3121834056237,548.0421268815799,1 45671U 20035Q   25342.75808434 -.00004949  00000+0 -31347-3 0  9996,2 45671  53.0558 114.8280 0001249  67.5459 292.5662 15.06411225305015
STARLINK-1456,45673,53.0542,0.0001006,15.0638848,546.5501716872513,547.9435589209497,1 45673U 20035S   25342.77283038  .00001139  00000+0  95368-4 0  9997,2 45673  53.0542 114.7619 0001006  85.4118 274.6986 15.06388480305035
STARLINK-1457,45674,53.0523,0.0003434,15.46691499,424.07578492419907,428.7491494982796,1 45674U 20035T   25342.83363249  .00123643  00000+0  24050-2 0  9991,2 45674  53.0523 106.6010 0003434 314.2524  45.8200 15.46691499305129
STARLINK-1458,45675,53.0532,0.000125,15.0640113,546.3424265163603,548.0737627900235,1 45675U 20035U   25342.63644671  .00000736  00000+0  68301-4 0  9997,2 45675  53.0532 115.3703 0001250  95.3499 264.7632 15.06401130304978
STARLINK-1460,45676,53.0559,0.0001441,15.06391042,546.2410663706614,548.2369597376237,1 45676U 20035V   25342.67330358  .00002539  00000+0  18935-3 0  9996,2 45676  53.0559 115.2066 0001441  92.8778 267.2376 15.06391042304976
STARLINK-1392,45677,53.0552,0.0001481,15.06410463,546.1538511635863,548.205129908084,1 45677U 20035W   25342.75070307 -.00003556  00000+0 -21989-3 0  9996,2 45677  53.0552 114.8622 0001481  98.3928 261.7229 15.06410463305027
STARLINK-1394,45679,53.0541,0.0001367,15.06396809,546.274641426161,548.1680343957469,1 45679U 20035Y   25342.61525963  .00002982  00000+0  21904-3 0  9993,2 45679  53.0541 105.4653 0001367  87.4645 272.6500 15.06396809305148
STARLINK-1402,45685,53.0532,0.0003209,15.3094052,470.8063700366956,475.2034329090611,1 45685U 20035AE  25342.84628969  .00083886  00000+0  27484-2 0  9995,2 45685  53.0532  91.1604 0003209 267.6651  92.3981 15.30940520305375
STARLINK-1404,45686,53.0544,0.0001264,15.06389488,546.3684077615535,548.119144021699,1 45686U 20035AF  25342.64105639 -.00000048  00000+0  15651-4 0  9993,2 45686  53.0544 105.3519 0001264  86.9634 273.1499 15.06389488305156
STARLINK-1413,45689,53.0542,0.0001376,15.06405675,546.2412393669365,548.1470905035258,1 45689U 20035AJ  25342.72582615  .00002372  00000+0  17803-3 0  9999,2 45689  53.0542 104.9688 0001376  93.3452 266.7695 15.06405675305077
STARLINK-1417,45693,53.0536,4.33e-05,15.07352975,543.9926245146416,544.5921068977113,1 45693U 20035AN  25342.71579186  .00032957  00000+0  21647-2 0  9994,2 45693  53.0536 104.9512 0000433  10.9757 349.1241 15.07352975305154
STARLINK-1420,45695,53.0543,0.0001355,15.06400582,546.2713897047724,548.1481586805794,1 45695U 20035AQ  25342.78938870  .00002248  00000+0  16976-3 0  9992,2 45695  53.0543  84.6755 0001355  89.4182 270.6963 15.06400582305453
STARLINK-1422,45696,53.0562,8.21e-05,15.06387047,546.6826829262473,547.8198316780954,1 45696U 20035AR  25342.73320097  .00011004  00000+0  75675-3 0  9995,2 45696  53.0562 104.9349 0000821 106.5766 253.5313 15.06387047305152
STARLINK-1351,45697,53.0562,0.0001238,15.06389819,546.385399398223,548.100123427148,1 45697U 20035AS  25342.70924991 -.00000308  00000+0 -17928-5 0  9992,2 45697  53.0562  85.0452 0001238 100.8012 259.3116 15.06389819305447
STARLINK-1398,45699,53.049,0.0001231,15.57602224,393.76509474489103,395.43254230341154,1 45699U 20035AU  25342.43992560  .00127372  00000+0  16741-2 0  9999,2 45699  53.0490  32.8681 0001231 306.5468  53.5429 15.57602224306150
STARLINK-1400,45700,53.0546,0.0001368,15.06397179,546.2728150449757,548.1675927759661,1 45700U 20035AV  25342.68344740 -.00000454  00000+0 -11591-4 0  9993,2 45700  53.0546  85.1603 0001368  88.5223 271.5922 15.06397179305431
STARLINK-1403,45701,53.0558,0.0001307,15.06392023,546.3308601503295,548.1411526542033,1 45701U 20035AW  25342.58024260  .00001946  00000+0  14952-3 0  9993,2 45701  53.0558  85.6252 0001307  94.2548 265.8590 15.06392023305415
STARLINK-1407,45703,53.0413,0.0008358,15.45205478,425.0834944802582,436.4652707474361,1 45703U 20035AY  25342.56069624  .00080458  00000+0  16575-2 0  9993,2 45703  53.0413  34.2902 0008358 174.8364 185.2730 15.45205478306145
STARLINK-1411,45706,53.0518,0.0003107,15.45971015,426.411599888349,430.6412605438845,1 45706U 20035BB  25342.63741220  .00066933  00000+0  13484-2 0  9991,2 45706  53.0518  61.1395 0003107   5.3155 354.7883 15.45971015305768
STARLINK-1423,45710,53.0568,0.0001543,15.06402952,546.133930611747,548.2710903846873,1 45710U 20035BF  25342.67237226  .00000987  00000+0  85142-4 0  9995,2 45710  53.0568  85.2085 0001543  75.6313 284.4847 15.06402952305438
STARLINK-1433,45711,53.0548,0.0001445,15.06377458,546.2799239332217,548.2813696331414,1 45711U 20035BG  25342.78665264  .00002262  00000+0  17082-3 0  9990,2 45711  53.0548  84.6979 0001445  79.6348 280.4804 15.06377458305447
STARLINK-1434,45712,53.0514,0.0002988,15.18186016,509.2644366401173,513.381577940474,1 45712U 20035BH  25342.68657216  .00057946  00000+0  27930-2 0  9999,2 45712  53.0514  78.5324 0002988 187.1815 172.9137 15.18186016305539
STARLINK-1465,45731,53.0546,0.0001339,15.06429678,546.1933086432782,548.0478926287287,1 45731U 20038B   25342.15634602  .00014301  00000+0  97622-3 0  9993,2 45731  53.0546 287.5267 0001339  96.4072 263.7069 15.06429678302394
STARLINK-1471,45735,53.0488,0.0001643,15.42951872,436.2829537211119,438.5225400819445,1 45735U 20038F   25342.79598251  .00028103  00000+0  63580-3 0  9997,2 45735  53.0488 215.3224 0001643 104.6687 255.4500 15.42951872303471
STARLINK-1474,45738,53.0334,0.000227,15.74849311,343.533852931143,346.58618437761106,1 45738U 20038J   25342.76849645  .00117886  00000+0  77539-3 0  9999,2 45738  53.0334 164.7297 0002270 123.3420 236.7816 15.74849311304170
STARLINK-1475,45739,53.0363,0.0005073,16.1182486,238.48362880230343,245.20025943900873,1 45739U 20038K   25342.91056087  .00985665  59798-3  90832-3 0  9998,2 45739  53.0363 124.8215 0005073 321.7450  38.3223 16.11824860304757
STARLINK-1480,45741,53.0551,0.0001374,15.0639788,546.2665116559447,548.1695992251798,1 45741U 20038M   25342.86774146  .00008590  00000+0  59490-3 0  9994,2 45741  53.0551 284.3301 0001374 102.4976 257.6167 15.06397880302519
STARLINK-1500,45744,53.039,0.000207,15.2969173,475.31413410940513,478.1520503275833,1 45744U 20038Q   25342.48596539  .00025039  00000+0  86806-3 0  9991,2 45744  53.0390 258.8649 0002070  39.7425 320.3726 15.29691730302839
STARLINK-1504,45746,53.0268,0.0003322,15.439576,432.1795423836038,436.70582032389393,1 45746U 20038S   25342.80669491  .00030325  00000+0  66230-3 0  9990,2 45746  53.0268 218.2200 0003322  78.2518 281.8860 15.43957600303423
STARLINK-1506,45747,53.0673,0.0002709,15.22872965,495.317420313796,499.042467033878,1 45747U 20038T   25342.21125361  .00011288  00000+0  48896-3 0  9994,2 45747  53.0673 264.4800 0002709  26.2266 333.8867 15.22872965302739
STARLINK-1464,45751,53.0545,0.0001438,15.06425519,546.1374931068922,548.1292008586852,1 45751U 20038X   25342.20610116  .00020092  00000+0  13630-2 0  9995,2 45751  53.0545 267.3052 0001438 100.4840 259.6311 15.06425519302699
STARLINK-1477,45754,53.0528,0.0006202,15.0882945,535.4851468643892,544.0661256984322,1 45754U 20038AA  25342.78236351  .00027335  00000+0  17287-2 0  9995,2 45754  53.0528 264.3399 0006202  86.7771 273.3929 15.08829450302789
STARLINK-1478,45755,53.0551,0.0001848,15.06414693,545.8867302838034,548.4463224671517,1 45755U 20038AB  25342.50467628  .00004447  00000+0  31714-3 0  9990,2 45755  53.0551 265.9616 0001848  82.7902 277.3298 15.06414693302722
STARLINK-1484,45756,53.0122,0.0001384,15.68983373,360.874072962778,362.73968942909323,1 45756U 20038AC  25342.91670139  .00180531  00000+0  15070-2 0  9994,2 45756  53.0122 153.5662 0001384 152.1949 294.7691 15.68983373  5991
STARLINK-1493,45759,53.0545,0.0001304,15.06397217,546.3170208813817,548.1231540097879,1 45759U 20038AF  25341.96284314  .00012205  00000+0  83691-3 0  9994,2 45759  53.0545 268.3941 0001304  87.2141 272.8997 15.06397217302648
